CENTISPACE-1 S4         
1 53758U 22108B   26156.70603248  .00000621  00000+0  16078-3 0  9994
2 53758  53.5298 100.3056 0007975 308.9124  51.1140 14.61914955199884
BLUEWALKER-3            
1 53807U 22111AL  26156.09445002  .00006900  00000+0  19133-3 0  9998
2 53807  53.2291  90.7369 0007068 127.5569 232.6079 15.38113643208348
YUNHAI-1 03             
1 53877U 22115A   26156.73409146  .00000341  00000+0  14129-3 0  9992
2 53877  98.5532 155.0268 0006037  82.5795 277.6075 14.32710201193876
CENTISPACE-1 S5         
1 54020U 22126A   26156.67366703  .00000943  00000+0  21927-3 0  9991
2 54020  54.9991 259.0332 0014156  51.0347 309.1906 14.62995534195350
CENTISPACE-1 S6         
1 54021U 22126B   26156.66115591  .00000728  00000+0  18026-3 0  9995
2 54021  54.9994 260.8952 0016007  50.5932 309.6476 14.62276690195311
OTB-3-GAZELLE           
1 54023U 22127A   26156.47730881  .00000172  00000+0  64710-4 0  9997
2 54023  98.3941 148.3602 0012264 219.6573 140.3721 14.42670166192672
ASO-S                   
1 54029U 22129A   26156.67722675  .00000256  00000+0  74265-4 0  9998
2 54029  98.2748 161.9226 0015448 125.0973 235.1673 14.52056053193759
HJ-2E                   
1 54035U 22132A   26156.71559731  .00009023  00000+0  39392-3 0  9997
2 54035  97.3800 161.3005 0021892  53.5911 306.7340 15.22135499202679
COSMOS 2561             
1 54109U 22137A   26156.74660743  .00014014  00000+0  23872-3 0  9995
2 54109  96.9182 216.1775 0011720  72.8773 287.3763 15.51403838204572
GONETS-M 23             
1 54150U 22139A   26156.75170461  .00000016  00000+0  44938-4 0  9991
2 54150  82.5074 355.4026 0020573 245.8651 114.0277 12.42890320164224
GONETS-M 24             
1 54151U 22139B   26156.72480962  .00000021  00000+0  83204-4 0  9994
2 54151  82.4990 354.4870 0015763 256.7721 103.1601 12.42890925164222
GONETS-M 25             
1 54152U 22139C   26156.71117990  .00000008  00000+0 -15138-4 0  9999
2 54152  82.5050 355.1757 0019685 255.2153 104.6745 12.42889630164229
SKIF-D                  
1 54153U 22139D   26156.26517491  .00000021  00000+0  00000+0 0  9991
2 54153  89.9527  96.6710 0007377 204.6047 155.4055  5.00431182 63510
MATS                    
1 54227U 22147A   26156.48269446  .00004359  00000+0  30888-3 0  9999
2 54227  97.6823 158.1306 0011211 235.3719 124.6450 15.05281785196007
JILIN-1 GAOFEN 03D54    
1 54254U 22155D   26156.73174939  .00269911  29364-4  83475-3 0  9994
2 54254  97.6140 308.3695 0003377 273.4917  86.5970 15.91694334198475
EOS-6 (OCEANSAT-3)      
1 54361U 22158A   26156.68398097  .00000332  00000+0  10324-3 0  9997
2 54361  98.3532 255.0311 0001759  61.3358 298.8012 14.46993555186170
DONGPO 09               
1 54685U 22167D   26156.75044387  .00013438  00000+0  38468-3 0  9994
2 54685  97.6897 327.2497 0003148 142.3493 217.7971 15.36068342193692
DONGPO 08               
1 54686U 22167E   26156.71096661  .00011198  00000+0  34899-3 0  9998
2 54686  97.6861 324.4406 0007767 199.4728 160.6218 15.33405422193565
2022-167F               
1 54687U 22167F   26156.75776522  .00202971  00000+0  73925-3 0  9998
2 54687  97.6141 343.2986 0001185 167.4788 192.6512 15.87949347195010
DONGPO 10               
1 54689U 22167H   26156.72363818  .00011834  00000+0  35963-3 0  9993
2 54689  97.6942 326.3782 0005889 142.8924 217.2726 15.34207336193602
JILIN-1 GAOFEN 03D48    
1 54695U 22167P   26156.72702566  .00012480  00000+0  37004-3 0  9993
2 54695  97.6877 325.7559 0007166 149.6525 210.5133 15.34963165193633
STAR VIBE               
1 55009U 23001A   26156.62278490  .00015444  00000+0  36034-3 0  9999
2 55009  97.3170 221.0425 0006737 145.1303 215.0387 15.42286213190442
BRO-8                   
1 55011U 23001C   26156.61168733  .00032134  00000+0  60765-3 0  9992
2 55011  97.3211 221.6348 0006846 154.7915 205.3671 15.48323453190416
CONNECTA T1.2           
1 55012U 23001D   26155.97127024  .00027440  00000+0  49413-3 0  9990
2 55012  97.3287 226.4524 0006694 134.9690 225.2105 15.49756616190651
BIRKELAND               
1 55015U 23001G   26156.64531149  .00009859  00000+0  24997-3 0  9999
2 55015  97.3344 224.5872 0008013 138.5073 221.6783 15.39869850190572
ION SCV-008             
1 55051U 23001AU  26155.73405434  .00007774  00000+0  28272-3 0  9999
2 55051  97.5704 251.8458 0016076  60.0123 300.2709 15.28421370189434
ION SCV-007             
1 55060U 23001BD  26156.41454536  .00000486  00000+0  75142-4 0  9994
2 55060  97.9009 219.6624 0012735  20.5157 339.6562 14.77542538184519
HUYGENS                 
1 55093U 23001CN  26156.64540770  .00010113  00000+0  25616-3 0  9999
2 55093  97.3249 223.8321 0011138 121.4924 238.7412 15.39860928190598
SHARJAHSAT-1            
1 55104U 23001CZ  26156.61282500  .00020453  00000+0  38409-3 0  9995
2 55104  97.3173 225.2218 0006971 136.7646 223.4153 15.48611666190706
HORUS 1                 
1 55690U 23025A   26156.72447377  .00006167  00000+0  26149-3 0  9992
2 55690  97.3461 231.5595 0001985 130.8953 229.2456 15.23477867182303
