OBJECT_NAME,OBJECT_ID,EPOCH,MEAN_MOTION,ECCENTRICITY,INCLINATION,RA_OF_ASC_NODE,ARG_OF_PERICENTER,MEAN_ANOMALY,EPHEMERIS_TYPE,CLASSIFICATION_TYPE,NORAD_CAT_ID,ELEMENT_SET_NO,REV_AT_EPOCH,BSTAR,MEAN_MOTION_DOT,MEAN_MOTION_DDOT
CENTISPACE-1 S4,2022-108B,2026-06-05T16:56:41.206272,14.61914955,.0007975,53.5298,100.3056,308.9124,51.1140,0,U,53758,999,19988,.16078E-3,.621E-5,0
BLUEWALKER-3,2022-111AL,2026-06-05T02:16:00.481728,15.38113643,.0007068,53.2291,90.7369,127.5569,232.6079,0,U,53807,999,20834,.19133E-3,.69E-4,0
YUNHAI-1 03,2022-115A,2026-06-05T17:37:05.502144,14.32710201,.0006037,98.5532,155.0268,82.5795,277.6075,0,U,53877,999,19387,.14129E-3,.341E-5,0
CENTISPACE-1 S5,2022-126A,2026-06-05T16:10:04.831392,14.62995534,.0014156,54.9991,259.0332,51.0347,309.1906,0,U,54020,999,19535,.21927E-3,.943E-5,0
CENTISPACE-1 S6,2022-126B,2026-06-05T15:52:03.870624,14.62276690,.0016007,54.9994,260.8952,50.5932,309.6476,0,U,54021,999,19531,.18026E-3,.728E-5,0
OTB-3-GAZELLE,2022-127A,2026-06-05T11:27:19.481184,14.42670166,.0012264,98.3941,148.3602,219.6573,140.3721,0,U,54023,999,19267,.6471E-4,.172E-5,0
ASO-S,2022-129A,2026-06-05T16:15:12.391200,14.52056053,.0015448,98.2748,161.9226,125.0973,235.1673,0,U,54029,999,19375,.74265E-4,.256E-5,0
HJ-2E,2022-132A,2026-06-05T17:10:27.607584,15.22135499,.0021892,97.3800,161.3005,53.5911,306.7340,0,U,54035,999,20267,.39392E-3,.9023E-4,0
COSMOS 2561,2022-137A,2026-06-05T17:55:06.881952,15.51403838,.001172,96.9182,216.1775,72.8773,287.3763,0,U,54109,999,20457,.23872E-3,.14014E-3,0
GONETS-M 23,2022-139A,2026-06-05T18:02:27.278304,12.42890320,.0020573,82.5074,355.4026,245.8651,114.0277,0,U,54150,999,16422,.44938E-4,.16E-6,0
GONETS-M 24,2022-139B,2026-06-05T17:23:43.551168,12.42890925,.0015763,82.4990,354.4870,256.7721,103.1601,0,U,54151,999,16422,.83204E-4,.21E-6,0
GONETS-M 25,2022-139C,2026-06-05T17:04:05.943360,12.42889630,.0019685,82.5050,355.1757,255.2153,104.6745,0,U,54152,999,16422,-.15138E-4,.8E-7,0
SKIF-D,2022-139D,2026-06-05T06:21:51.112224,5.00431182,.0007377,89.9527,96.6710,204.6047,155.4055,0,U,54153,999,6351,0,.21E-6,0
MATS,2022-147A,2026-06-05T11:35:04.801344,15.05281785,.0011211,97.6823,158.1306,235.3719,124.6450,0,U,54227,999,19600,.30888E-3,.4359E-4,0
JILIN-1 GAOFEN 03D54,2022-155D,2026-06-05T17:33:43.147296,15.91694334,.0003377,97.6140,308.3695,273.4917,86.5970,0,U,54254,999,19847,.83475E-3,.269911E-2,.29364E-4
EOS-6 (OCEANSAT-3),2022-158A,2026-06-05T16:24:55.955808,14.46993555,.0001759,98.3532,255.0311,61.3358,298.8012,0,U,54361,999,18617,.10324E-3,.332E-5,0
DONGPO 09,2022-167D,2026-06-05T18:00:38.350368,15.36068342,.0003148,97.6897,327.2497,142.3493,217.7971,0,U,54685,999,19369,.38468E-3,.13438E-3,0
DONGPO 08,2022-167E,2026-06-05T17:03:47.515104,15.33405422,.0007767,97.6861,324.4406,199.4728,160.6218,0,U,54686,999,19356,.34899E-3,.11198E-3,0
2022-167F,2022-167F,2026-06-05T18:11:10.915008,15.87949347,.0001185,97.6141,343.2986,167.4788,192.6512,0,U,54687,999,19501,.73925E-3,.202971E-2,0
DONGPO 10,2022-167H,2026-06-05T17:22:02.338752,15.34207336,.0005889,97.6942,326.3782,142.8924,217.2726,0,U,54689,999,19360,.35963E-3,.11834E-3,0
JILIN-1 GAOFEN 03D48,2022-167P,2026-06-05T17:26:55.017024,15.34963165,.0007166,97.6877,325.7559,149.6525,210.5133,0,U,54695,999,19363,.37004E-3,.1248E-3,0
STAR VIBE,2023-001A,2026-06-05T14:56:48.615360,15.42286213,.0006737,97.3170,221.0425,145.1303,215.0387,0,U,55009,999,19044,.36034E-3,.15444E-3,0
BRO-8,2023-001C,2026-06-05T14:40:49.785312,15.48323453,.0006846,97.3211,221.6348,154.7915,205.3671,0,U,55011,999,19041,.60765E-3,.32134E-3,0
CONNECTA T1.2,2023-001D,2026-06-04T23:18:37.748736,15.49756616,.00066949,97.3287,226.4524,134.9690,225.2105,0,U,55012,999,19065,.49413273E-3,.2744E-3,0
BIRKELAND,2023-001G,2026-06-05T15:29:14.912736,15.39869850,.0008013,97.3344,224.5872,138.5073,221.6783,0,U,55015,999,19057,.24997E-3,.9859E-4,0
ION SCV-008,2023-001AU,2026-06-04T17:37:02.294976,15.28421370,.0016076,97.5704,251.8458,60.0123,300.2709,0,U,55051,999,18943,.28272E-3,.7774E-4,0
ION SCV-007,2023-001BD,2026-06-05T09:56:56.719104,14.77542538,.0012735,97.9009,219.6624,20.5157,339.6562,0,U,55060,999,18451,.75142E-4,.486E-5,0
HUYGENS,2023-001CN,2026-06-05T15:29:23.225280,15.39860928,.0011138,97.3249,223.8321,121.4924,238.7412,0,U,55093,999,19059,.25616E-3,.10113E-3,0
SHARJAHSAT-1,2023-001CZ,2026-06-05T14:42:28.080000,15.48611666,.0006971,97.3173,225.2218,136.7646,223.4153,0,U,55104,999,19070,.38409E-3,.20453E-3,0
HORUS 1,2023-025A,2026-06-05T17:23:14.533728,15.23477867,.0001985,97.3461,231.5595,130.8953,229.2456,0,U,55690,999,18230,.26149E-3,.6167E-4,0
